{
    "links": {
        "self": "http://www.neowsapp.com/rest/v1/neo/54016336?api_key=iIulBulltgU6a56xZRHN4H3l9WmuAYTsLGpBGhQ2"
    },
    "id": "54016336",
    "neo_reference_id": "54016336",
    "name": "(2020 FX3)",
    "designation": "2020 FX3",
    "nasa_jpl_url": "http://ssd.jpl.nasa.gov/sbdb.cgi?sstr=54016336",
    "absolute_magnitude_h": 24.09,
    "estimated_diameter": {
        "kilometers": {
            "estimated_diameter_min": 0.0404161533,
            "estimated_diameter_max": 0.0903732663
        },
        "meters": {
            "estimated_diameter_min": 40.4161533403,
            "estimated_diameter_max": 90.3732662579
        },
        "miles": {
            "estimated_diameter_min": 0.0251134256,
            "estimated_diameter_max": 0.0561553268
        },
        "feet": {
            "estimated_diameter_min": 132.598932525,
            "estimated_diameter_max": 296.5002268697
        }
    },
    "is_potentially_hazardous_asteroid": false,
    "close_approach_data": [
        {
            "close_approach_date": "2010-03-14",
            "close_approach_date_full": "2010-Mar-14 06:32",
            "epoch_date_close_approach": 1268548320000,
            "relative_velocity": {
                "kilometers_per_second": "23.3253737757",
                "kilometers_per_hour": "83971.3455926021",
                "miles_per_hour": "52176.5285989143"
            },
            "miss_distance": {
                "astronomical": "0.4210997618",
                "lunar": "163.8078073402",
                "kilometers": "62995627.422787366",
                "miles": "39143667.7645270108"
            },
            "orbiting_body": "Earth"
        },
        {
            "close_approach_date": "2013-01-24",
            "close_approach_date_full": "2013-Jan-24 17:28",
            "epoch_date_close_approach": 1359048480000,
            "relative_velocity": {
                "kilometers_per_second": "12.8972267724",
                "kilometers_per_hour": "46430.0163807563",
                "miles_per_hour": "28849.8065672538"
            },
            "miss_distance": {
                "astronomical": "0.0106362613",
                "lunar": "4.1375056457",
                "kilometers": "1591162.035243431",
                "miles": "988702.2419681078"
            },
            "orbiting_body": "Mars"
        },
        {
            "close_approach_date": "2015-03-27",
            "close_approach_date_full": "2015-Mar-27 07:57",
            "epoch_date_close_approach": 1427443020000,
            "relative_velocity": {
                "kilometers_per_second": "16.3749236358",
                "kilometers_per_hour": "58949.7250887684",
                "miles_per_hour": "36629.0666808517"
            },
            "miss_distance": {
                "astronomical": "0.1858065247",
                "lunar": "72.2787381083",
                "kilometers": "27796260.327222389",
                "miles": "17271795.2635474082"
            },
            "orbiting_body": "Earth"
        },
        {
            "close_approach_date": "2020-04-15",
            "close_approach_date_full": "2020-Apr-15 01:01",
            "epoch_date_close_approach": 1586912460000,
            "relative_velocity": {
                "kilometers_per_second": "10.2508436273",
                "kilometers_per_hour": "36903.0370583844",
                "miles_per_hour": "22930.1121099722"
            },
            "miss_distance": {
                "astronomical": "0.0361065923",
                "lunar": "14.0454644047",
                "kilometers": "5401469.301038401",
                "miles": "3356317.3891598938"
            },
            "orbiting_body": "Earth"
        }
    ],
    "orbital_data": {
        "orbit_id": "8",
        "orbit_determination_date": "2020-08-29 07:48:20",
        "first_observation_date": "2020-03-23",
        "last_observation_date": "2020-04-11",
        "data_arc_in_days": 19,
        "observations_used": 66,
        "orbit_uncertainty": "7",
        "minimum_orbit_intersection": ".0259384",
        "jupiter_tisserand_invariant": "3.835",
        "epoch_osculation": "2459000.5",
        "eccentricity": ".5071608564544721",
        "semi_major_axis": "1.851792723940968",
        "inclination": "4.535643734978557",
        "ascending_node_longitude": "3.148236290860205",
        "orbital_period": "920.4219919714836",
        "perihelion_distance": ".912635940090907",
        "perihelion_argument": "242.6334068453751",
        "aphelion_distance": "2.790949507791029",
        "perihelion_time": "2458986.487571667797",
        "mean_anomaly": "5.48061024572888",
        "mean_motion": ".3911249439280602",
        "equinox": "J2000",
        "orbit_class": {
            "orbit_class_type": "APO",
            "orbit_class_description": "Near-Earth asteroid orbits which cross the Earth’s orbit similar to that of 1862 Apollo",
            "orbit_class_range": "a (semi-major axis) > 1.0 AU; q (perihelion) < 1.017 AU"
        }
    },
    "is_sentry_object": false
}